[{"OBJECT_NAME":"HULIANWANG DIGUI-70","OBJECT_ID":"2025-178C","EPOCH":"2026-03-09T22:05:44.539296","MEAN_MOTION":13.24418895,"ECCENTRICITY":0.00020642,"INCLINATION":86.4908,"RA_OF_ASC_NODE":46.9185,"ARG_OF_PERICENTER":77.5215,"MEAN_ANOMALY":282.615,"EPHEMERIS_TYPE":0,"CLASSIFICATION_TYPE":"U","NORAD_CAT_ID":65230,"ELEMENT_SET_NO":999,"REV_AT_EPOCH":2717,"BSTAR":5.3962398e-5,"MEAN_MOTION_DOT":3.8e-7,"MEAN_MOTION_DDOT":0},{"OBJECT_NAME":"UNKNOWN","OBJECT_ID":"","EPOCH":"2026-03-07T15:43:36.274080","MEAN_MOTION":13.21084462,"ECCENTRICITY":0.00232599,"INCLINATION":82.5485,"RA_OF_ASC_NODE":199.2981,"ARG_OF_PERICENTER":313.0182,"MEAN_ANOMALY":46.8993,"EPHEMERIS_TYPE":0,"CLASSIFICATION_TYPE":"U","NORAD_CAT_ID":270349,"ELEMENT_SET_NO":999,"REV_AT_EPOCH":19242,"BSTAR":0.00067310133,"MEAN_MOTION_DOT":2.88e-6,"MEAN_MOTION_DDOT":0}]
